0 FENGYUN 1C DEB
1 31765U 99025CFQ 13282.08204637  .00005590  00000-0  40590-2 0  7361
2 31765 098.9918 138.9755 0309083 211.7362 304.8036 13.76348694319111
0 FENGYUN 1C DEB
1 31765U 99025CFQ 13285.54571453  .00004201  00000-0  30584-2 0  7379
2 31765 098.9911 142.2533 0308725 202.4446 187.0550 13.76379646319593
0 FENGYUN 1C DEB
1 31765U 99025CFQ 13287.58140420  .00006608  00000-0  47936-2 0  7384
2 31765 098.9922 144.1813 0308462 196.9483 193.9744 13.76394756319874
0 FENGYUN 1C DEB
1 31765U 99025CFQ 13289.84135567  .00006505  00000-0  47199-2 0  7399
2 31765 098.9916 146.3206 0308211 190.8617 232.2750 13.76421950320188
0 FENGYUN 1C DEB
1 31765U 99025CFQ 13291.09536909  .00005671  00000-0  41195-2 0  7409
2 31765 098.9912 147.5074 0308037 187.4550 326.1684 13.76435793320352
0 FENGYUN 1C DEB
1 31765U 99025CFQ 13294.07663372  .00005668  00000-0  41170-2 0  7415
2 31765 098.9902 150.3286 0307779 179.3962 339.1165 13.76464503320761
